ORBCOMM FM37            
1 33064U 08031E   25126.69980510  .00001729  00000+0  25604-3 0  9990
2 33064  48.4379 180.8470 0005537 204.1249 305.9764 14.79636707907902
ORBCOMM FM40            
1 33065U 08031F   25126.60509238  .00002169  00000+0  29838-3 0  9998
2 33065  48.4398 166.0221 0006754 215.2991 284.1194 14.81841837907992
VESSELSAT 1             
1 37840U 11058C   25126.24448485  .00000417  00000+0  82832-4 0  9990
2 37840  19.9635 347.6810 0013704  85.3015 274.8954 14.11346062700377
ORBCOMM FM109           
1 40086U 14040A   25126.73031027  .00000803  00000+0  20931-3 0  9994
2 40086  47.0028 212.0785 0001673 185.2974 174.7894 14.58116259575019
ORBCOMM FM107           
1 40087U 14040B   25126.28119227  .00000948  00000+0  24003-3 0  9998
2 40087  47.0047 215.1793 0000274 124.4936 235.5975 14.58179491575027
ORBCOMM FM106           
1 40088U 14040C   25126.21073281  .00001484  00000+0  27969-3 0  9991
2 40088  47.0609  40.9703 0017310 233.4430 126.4868 14.69354610577308
ORBCOMM FM111           
1 40089U 14040D   25126.74041352  .00003187  00000+0  38133-3 0  9991
2 40089  47.0007 254.1738 0030327 351.6173   8.4213 14.86097593584065
ORBCOMM FM104           
1 40090U 14040E   25126.77240079  .00000806  00000+0  21682-3 0  9999
2 40090  47.0050 245.9700 0015960  13.1128 347.0169 14.56592595574585
